[{"OBJECT_NAME":"SCS-01 J","OBJECT_ID":"2025-100J","EPOCH":"2026-03-09T22:31:25.904064","MEAN_MOTION":15.31338011,"ECCENTRICITY":0.00063909,"INCLINATION":97.3693,"RA_OF_ASC_NODE":145.4824,"ARG_OF_PERICENTER":272.025,"MEAN_ANOMALY":88.026,"EPHEMERIS_TYPE":0,"CLASSIFICATION_TYPE":"U","NORAD_CAT_ID":63990,"ELEMENT_SET_NO":999,"REV_AT_EPOCH":4563,"BSTAR":0.0011832888,"MEAN_MOTION_DOT":0.00035886,"MEAN_MOTION_DDOT":0},{"OBJECT_NAME":"STARLINK-35106","OBJECT_ID":"2025-216F","EPOCH":"2026-03-09T21:27:01.601856","MEAN_MOTION":15.30208382,"ECCENTRICITY":9.069e-5,"INCLINATION":53.159,"RA_OF_ASC_NODE":332.0289,"ARG_OF_PERICENTER":98.7136,"MEAN_ANOMALY":261.3968,"EPHEMERIS_TYPE":0,"CLASSIFICATION_TYPE":"U","NORAD_CAT_ID":65739,"ELEMENT_SET_NO":999,"REV_AT_EPOCH":2654,"BSTAR":0.00078986213,"MEAN_MOTION_DOT":0.00023113,"MEAN_MOTION_DDOT":0}]
